OBJECTID,NAME,TYPE,LABEL,COG,SCHOOLD,CONGDIST,FIPS,REGION,ACRES,SQMI,MUNICODE,CNTL_ID,CNTYCOUNCIL,EOC,YEARCONVERTED,GlobalID,Magisterial_District,Judge,Address,Unit,City,State,Zip,Coverage
1,EAST DEER,TOWNSHIP,East Deer Township,Allegheny Valley North,Deer Lakes,4,21024,NH,1613.701782,2.521409,907,003150,3,NEWCOM,1968,814ea69d-3400-4438-9200-318abece9b2e,Magisterial District 05-2-05,Honorable Carolyn S. Bengel,1010 Broadview Boulevard,,Brackenridge,PA,15014,East Deer
2,SPRINGDALE,TOWNSHIP,Springdale Township,Allegheny Valley North,Allegheny Valley,18,72968,NH,1553.413696,2.427209,948,003540,3,NEWCOM,1968,132d931c-f4d5-4322-bbb8-acb7b60a8e0d,Magisterial District 05-3-03,Honorable David J. Sosovicka,721 Gulf Lab Road,,Cheswick,PA,15024,Springdale
3,SPRINGDALE,BOROUGH,Springdale Borough,Allegheny Valley North,Allegheny Valley,18,72960,NH,698.273926,1.091053,853,003540,7,NEWCOM,1967,ab45a710-6b64-41d9-a760-83d8ce4d2a31,Magisterial District 05-3-03,Honorable David J. Sosovicka,721 Gulf Lab Road,,Cheswick,PA,15024,Springdale
4,ETNA,BOROUGH,Etna Borough,North Hills,Shaler Area,18,24160,NH,505.648651,0.790076,827,003190,3,NEWCOM,1955,d1fea2cd-84d9-49e5-b481-054b2ac8e63e,Magisterial District 05-2-03,Honorable Robert P. Dzvonick,1007 Mount Royal Blvd,,Pittsburgh,PA,15223,Etna
5,DRAVOSBURG,BOROUGH,Dravosburg Borough,Steel Valley,McKeesport Area,18,19856,MV,685.87915,1.071686,820,003140,9,Mon-Valley,1964,68df864f-5d03-4124-83f1-182457b2fef3,Magisterial District 05-2-14,"Honorable Richard D. Olasz, Jr.",2629 Skyline Drive,,West Mifflin,PA,15122,Dravosburg
6,SWISSVALE,BOROUGH,Swissvale Borough,Turtle Creek Valley,Woodland Hills,18,75816,MV,53.422752,0.083473,854,003550,8,East Regional,1953,801b48ba-62dd-440f-932f-53a167a402d4,Magisterial District 05-2-08,Honorable Thomas Caulfield,2065 Ardmore Blvd,,Forest Hills,PA,15221,Swissvale
7,RICHLAND,TOWNSHIP,Richland Township,North Hills,Pine-Richland,4,64528,NH,9362.007812,14.628138,938,003465,2,NEWCOM,1989,239e1e93-1dcb-468b-ba78-ce4fcf6e9364,Magisterial District 05-3-04,Honorable Suzanne Blaschak,2060 Saxonburg Boulevard,,Gibsonia,PA,15044,Richland
8,FOX CHAPEL,BOROUGH,Fox Chapel Borough,North Hills,Fox Chapel Area,18,27120,NH,5025.400391,7.852188,868,003215,3,NEWCOM,1961,af122247-0fd1-47e7-a35e-b07258847125,Magisterial District 05-2-04,Honorable Elissa M. Lang,1205 Main Street,,Pittsburgh,PA,15215,Fox Chapel
9,WEST ELIZABETH,BOROUGH,West Elizabeth Borough,Steel Valley,West Jefferson Hills,18,82848,MV,146.38269,0.228723,862,003600,9,Mon-Valley,1964,4264eab5-40e5-466a-a2a5-39769e5bafda,Magisterial District 05-2-26,Honorable Beth S. Mills,2611 Hayden Boulevard, Suite 3,Elizabeth,PA,15037,West Elizabeth
10,FORWARD,TOWNSHIP,Forward Township,Twin Rivers,Elizabeth Foreward,18,26896,MV,12703.655273,19.849468,911,003210,9,Mon-Valley,1990,e272711c-c85a-4ea0-8917-db388564440b,Magisterial District 05-2-26,Honorable Beth S. Mills,2611 Hayden Boulevard, Suite 3,Elizabeth,PA,15037,Forward
11,PORT VUE,BOROUGH,Port Vue Borough,Twin Rivers,South Allegheny,18,62320,MV,748.593018,1.169677,848,003450,9,Mon-Valley,1974,dfd4bde5-8495-4ec6-9c4c-3922103bab83,Magisterial District 05-3-09,Honorable Armand A. Martin,800 Monongahela Avenue,,Glassport,PA,15045,Port Vue
12,CHALFANT,BOROUGH,Chalfant Borough,Turtle Creek Valley,Woodland Hills,18,12496,ES,104.564331,0.163382,814,003095,8,East Regional,1954,df6162d2-8292-4ff4-8a35-292b1a1020e3,Magisterial District 05-2-08,Honorable Thomas Caulfield,2065 Ardmore Blvd,,Forest Hills,PA,15221,Chalfant
13,WILKINSBURG,BOROUGH,Wilkinsburg Borough,Turtle Creek Valley,Wilkinsburg,18,85188,ES,1445.369507,2.258391,866,003640,10,East Regional,1952,da7cc42e-6fd8-4b2d-8225-3dc2a6e0ec60,Magisterial District 05-2-10,Honorable Kimberly M. Hoots,907 West St.,,Pittsburgh,PA,15221,Wilkinsburg
14,BRADFORD WOODS,BOROUGH,Bradford Woods Borough,North Hills,North Allegheny,4,8064,NH,589.59259,0.921238,809,003070,2,NEWCOM,2007,cb1b03c6-0e69-4896-9fc5-c9a9283e5094,Magisterial District 05-2-12,Honorable William K. Wagner,8105 Perry Highway,,Pittsburgh,PA,15237,Bradford Woods
15,MARSHALL,TOWNSHIP,Marshall Township,North Hills,North Allegheny,4,47696,NH,9874.303711,15.4286,923,003340,2,NEWCOM,2007,eff30017-ed80-4837-966a-b888544a577d,Magisterial District 05-2-12,Honorable William K. Wagner,8105 Perry Highway,,Pittsburgh,PA,15237,Marshall
16,EMSWORTH,BOROUGH,Emsworth Borough,Quaker Valley,Avonworth,14,23616,NH,434.306488,0.678604,826,003185,1,Northwest Regional,1957,b4953dda-c145-4060-bc27-776b3786235b,Magisterial District 05-2-01,Honorable Tara L. Smith,660 Lincoln Avenue,,Pittsburgh,PA,15202,Emsworth
17,GREEN TREE,BOROUGH,Green Tree Borough,South Hills Area,Keystone Oaks,14,31256,SH,1328.240967,2.075377,831,003240,12,Southwest Regional,1956,ed85a760-d7ed-44b9-a28b-4e85f386a008,Magisterial District 05-2-22,Honorable Gary M. Zyra,301 Lindsay Road,,Carnegie,PA,15106,Green tree
18,GLASSPORT,BOROUGH,Glassport Borough,Twin Rivers,South Allegheny,18,29432,MV,1148.58313,1.794661,829,003230,9,Mon-Valley,1974,1930786a-4b8f-4bfd-8344-a3875a5824d2,Magisterial District 05-3-09,Honorable Armand A. Martin,800 Monongahela Avenue,,Glassport,PA,15045,Glassport
19,NORTH FAYETTE,TOWNSHIP,North Fayette Township,Char-West,West Allegheny,20,55016,AA,16090.414062,25.141266,929,003385,4,Southwest Regional,2007,1bb2b958-4f87-4700-b957-0ae6ad3270a1,Magisterial District 05-3-17,Honorable Anthony W. Saveikis,8052 Steubenville Pike,,Oakdale,PA,15071,North Fayette
20,FINDLAY,TOWNSHIP,Findlay Township,Char-West,West Allegheny,20,25904,AA,20697.904297,32.340469,910,003200,4,Northwest Regional,2007,9954ad9f-b5cd-4bcc-818b-6f2f5b77214e,Magisterial District 05-3-17,Honorable Anthony W. Saveikis,8052 Steubenville Pike,,Oakdale,PA,15071,Findlay
21,KENNEDY,TOWNSHIP,Kennedy Township,Char-West,Montour,14,39312,AA,3535.634277,5.524428,919,003290,4,Southwest Regional,1975,7d6ba6fb-e2fb-48a7-ad67-79b5a030cdf6,Magisterial District 05-2-43,Honorable Carla M. Swearingen,5624 Steubenville Pike,,McKees Rocks,PA,15136,Kennedy
22,NORTH BRADDOCK,BOROUGH,North Braddock Borough,Turtle Creek Valley,Woodland Hills,18,54816,MV,977.492798,1.527333,843,003380,8,East Regional,1954,c83a048d-5773-49b2-b8d2-69f559262807,Magisterial District 05-2-47,Honorable Scott H. Schricker,100 Penn Plaza Shopping Center,,Turtle Creek,PA,15145,North Braddock
23,BRADDOCK HILLS,BOROUGH,Braddock Hills Borough,Steel Valley,Woodland Hills,18,8008,MV,603.870605,0.943548,872,003065,8,East Regional,1953,d7a6e5be-14a7-4b33-bd4a-aeb44ec0e130,Magisterial District 05-2-08,Honorable Thomas Caulfield,2065 Ardmore Blvd,,Forest Hills,PA,15221,Braddock Hills
24,WILMERDING,BOROUGH,Wilmerding Borough,Turtle Creek Valley,East Allegheny,18,85496,MV,281.610809,0.440017,867,003645,8,East Regional,1972,523d5c2d-5cc4-4484-b89d-8ef57f4c48b6,Magisterial District 05-2-11,Honorable Vacant,371 Lincoln Highway,,North Versailles,PA,15137,Wilmerding
25,VERSAILLES,BOROUGH,Versailles Borough,Twin Rivers,McKeesport Area,18,80040,MV,345.723999,0.540194,860,003585,9,Mon-Valley,1975,5ba3c2a4-e3b0-4eb7-97a0-2425d8094609,Magisterial District 05-3-05,Honorable Thomas G. Miller,1985 Lincoln Way,,White Oak,PA,15131,Versailles
26,SOUTH VERSAILLES,TOWNSHIP,South Versailles Township,Twin Rivers,McKeesport Area,18,72568,MV,633.785217,0.990289,947,003530,9,Mon-Valley,1975,a8a7c6a9-fae4-476e-b018-84aeada249c9,Magisterial District 05-3-05,Honorable Thomas G. Miller,1985 Lincoln Way,,White Oak,PA,15131,South Versailles
27,BRIDGEVILLE,BOROUGH,Bridgeville Borough,Char-West,Chartiers Valley,20,8624,SH,693.333862,1.083334,811,003080,4,Southwest Regional,1965,a5bef4c5-6e4c-4666-bd16-3e03f4124a7c,Magisterial District 05-2-21,Honorable Maureen McGraw-Desmet,295 Millers Run Road,,Bridgeville,PA,15017,Bridgeville
28,RESERVE,TOWNSHIP,Reserve Township,North Hills,Shaler Area,18,64240,NH,1299.43811,2.030372,937,003460,3,NEWCOM,1959,d936a3e2-4225-4783-b7d7-d983170cdd94,Magisterial District 05-2-03,Honorable Robert P. Dzvonick,1007 Mount Royal Blvd,,Pittsburgh,PA,15223,Reserve
29,BELLEVUE,BOROUGH,Bellevue Borough,Quaker Valley,Northgate,14,5312,NH,706.687988,1.1042,803,003030,1,Northwest Regional,1955,7c7a91d4-8793-4eae-838f-a10ae4ed7265,Magisterial District 05-2-01,Honorable Tara L. Smith,660 Lincoln Avenue,,Pittsburgh,PA,15202,Bellevue
30,NEVILLE,TOWNSHIP,Neville Township,Char-West,Cornell,14,53136,AA,1500.700928,2.344845,928,003375,4,Northwest Regional,1970,9a13ce76-c0d6-4944-8a97-2a087f5d6243,Magisterial District 05-2-25,Honorable Mary P. Murray,923 Fifth Avenue,,Coraopolis,PA,15108,Neville
31,BRACKENRIDGE,BOROUGH,Brackenridge Borough,Allegheny Valley North,Highlands,4,7976,NH,357.320007,0.558312,807,003055,3,NEWCOM,1970,839ea072-fc87-4611-b79d-9f50564459b7,Magisterial District 05-2-05,Honorable Carolyn S. Bengel,1010 Broadview Boulevard,,Brackenridge,PA,15014,Brackenridge
32,HARRISON,TOWNSHIP,Harrison Township,Allegheny Valley North,Highlands,4,32832,NH,5015.975586,7.837462,916,003255,3,NEWCOM,1972,417e3b9e-a5ff-48fa-ad19-e50e4c74e74d,Magisterial District 05-2-05,Honorable Carolyn S. Bengel,1010 Broadview Boulevard,,Brackenridge,PA,15014,Harrison
33,WEST HOMESTEAD,BOROUGH,West Homestead Borough,Steel Valley,Steel Valley,18,83200,MV,643.757812,1.005872,863,003605,11,Mon-Valley,1954,1a7f2ddf-2550-428f-8703-4cead8da69c4,Magisterial District 05-2-15,Honorable Thomas R. Torkowsky,510 East Eighth Avenue,,Munhall,PA,15120,West Homestead
34,EDGEWOOD,BOROUGH,Edgewood Borough,Turtle Creek Valley,Woodland Hills,14,22520,ES,418.757416,0.654308,823,003165,8,East Regional,1952,1d0d2487-3547-496a-ae3a-80565c428e01,Magisterial District 05-2-08,Honorable Thomas Caulfield,2065 Ardmore Blvd,,Forest Hills,PA,15221,Swissvale
35,BALDWIN,TOWNSHIP,Baldwin Township,South Hills Area,Baldwin-Whitehall,18,3952,SH,315.475952,0.492931,902,003020,6,South Hills Regional,1959,eb95a94a-1021-4833-98ec-fd3e0058e574,Magisterial District 05-2-17,Honorable Vacant,41 Macek Drive,,Pittsburgh,PA,15227,Baldwin
36,MOUNT OLIVER,BOROUGH,Mount Oliver Borough, ,City of Pittsburgh,14,51744,PGH,215.673828,0.33699,839,003365,0,City of Pittsburgh,1950,04445579-a603-4c71-9715-b71c8a768ca8,Magisterial District 05-3-14,Honorable Richard G. King,2213 Brownsville Road,,Pittsburgh,PA,15210,Pittsburgh 30
37,CHESWICK,BOROUGH,Cheswick Borough,Allegheny Valley North,Allegheny Valley,4,13392,NH,350.191284,0.547174,815,003100,7,NEWCOM,1966,bdbbf6d0-a81d-40db-917c-af40ba5f6443,Magisterial District 05-3-03,Honorable David J. Sosovicka,721 Gulf Lab Road,,Cheswick,PA,15024,Cheswick
38,AVALON,BOROUGH,Avalon Borough,Quaker Valley,Northgate,14,3608,NH,437.833588,0.684115,802,003015,1,Northwest Regional,1955,7afb50bf-d125-4538-9224-c05a0a061b6f,Magisterial District 05-2-01,Honorable Tara L. Smith,660 Lincoln Avenue,,Pittsburgh,PA,15202,Avalon
39,BEN AVON,BOROUGH,Ben Avon Borough,Quaker Valley,Avonworth,14,5504,NH,284.064056,0.44385,804,003035,1,Northwest Regional,1956,3d0df921-c835-4868-9ae8-05ad21910445,Magisterial District 05-2-01,Honorable Tara L. Smith,660 Lincoln Avenue,,Pittsburgh,PA,15202,Ben Avon
40,WALL,BOROUGH,Wall Borough,Turtle Creek Valley,East Allegheny,18,80600,ES,240.456009,0.375713,861,003590,8,East Regional,1971,905e6d9e-5822-4f31-898a-15bb6943768c,Magisterial District 05-2-11,Honorable Vacant,371 Lincoln Highway,,North Versailles,PA,15137,Wall
41,BEN AVON HEIGHTS,BOROUGH,Ben Avon Heights Borough, ,Avonworth,14,5520,NH,109.539764,0.171156,805,003040,1,Northwest Regional,1956,d20f402c-317d-4948-8714-7b582c7cc64d,Magisterial District 05-2-01,Honorable Tara L. Smith,660 Lincoln Avenue,,Pittsburgh,PA,15202,Ben Avon Heights
42,RANKIN,BOROUGH,Rankin Borough,Turtle Creek Valley,Woodland Hills,18,63408,MV,311.508423,0.486732,849,003455,8,East Regional,1953,b3f82400-86e2-4693-a0ed-da91a8e2657c,Magisterial District 05-2-14,"Honorable Richard D. Olasz, Jr.",2629 Skyline Drive,,West Mifflin,PA,15122,Rankin
43,PENNSBURY VILLAGE,BOROUGH,Pennsbury Village Borough,Char-West,Montour,14,59152,AA,37.13929,0.05803,871,003422,4,Southwest Regional,1977,5f589333-becb-42d7-a286-4deac84861bc,Magisterial District 05-2-23,Honorable Dennis R. Joyce,136 Bradford Avenue,,Pittsburgh,PA,15205,Pennsbury Village
44,BLAWNOX,BOROUGH,Blawnox Borough,Allegheny Valley North,Fox Chapel Area,18,7000,NH,277.078857,0.432936,806,003050,3,NEWCOM,1960,b891fea9-70be-447b-9872-a8ff9ff39975,Magisterial District 05-2-04,Honorable Elissa M. Lang,1205 Main Street,,Pittsburgh,PA,15215,Blawnox
45,BRADDOCK,BOROUGH,Braddock Borough,Turtle Creek Valley,Woodland Hills,18,7992,MV,414.308899,0.647358,808,003060,8,East Regional,1953,9722146b-5b9a-4472-ac56-99f82d5385f6,Magisterial District 05-2-47,Honorable Scott H. Schricker,100 Penn Plaza Shopping Center,,Turtle Creek,PA,15145,Braddock
46,EAST PITTSBURGH,BOROUGH,East Pittsburgh Borough,Turtle Creek Valley,Woodland Hills,18,21712,MV,250.961563,0.392128,822,003160,8,East Regional,1954,ec600777-360a-45cd-813e-f89e75904db0,Magisterial District 05-2-47,Honorable Scott H. Schricker,100 Penn Plaza Shopping Center,,Turtle Creek,PA,15145,East Pittsburgh
47,DUQUESNE,CITY,Duquesne,Twin Rivers,Duquesne City,18,20432,MV,1315.88855,2.056077,300,003145,9,Mon-Valley,1963,0a2758fb-8d86-4884-b542-991ec2590fa0,Magisterial District 05-2-47,Honorable Scott H. Schricker,100 Penn Plaza Shopping Center,,Turtle Creek,PA,15145,Duquesne
48,LIBERTY,BOROUGH,Liberty Borough,Twin Rivers,South Allegheny,18,43064,MV,943.39856,1.47406,837,003310,9,Mon-Valley,1977,1d26cb99-73d1-453e-9200-d92180d8ca02,Magisterial District 05-3-09,Honorable Armand A. Martin,800 Monongahela Avenue,,Glassport,PA,15045,Liberty
49,ELIZABETH,BOROUGH,Elizabeth Borough,Twin Rivers,Elizabeth Foreward,18,22992,MV,251.579834,0.393093,825,003180,9,Mon-Valley,1980,030bf599-030e-47a0-bf2d-27c4c6e23b97,Magisterial District 05-2-26,Honorable Beth S. Mills,2611 Hayden Boulevard, Suite 3,Elizabeth,PA,15037,Elizabeth
50,WHITAKER,BOROUGH,Whitaker Borough,Steel Valley,West Mifflin Area,18,84440,MV,211.785004,0.330914,865,003620,8,Mon-Valley,1955,0db313b4-da90-43c5-9727-df0f3c83ea69,Magisterial District 05-2-14,"Honorable Richard D. Olasz, Jr.",2629 Skyline Drive,,West Mifflin,PA,15122,Whitaker
51,DORMONT,BOROUGH,Dormont Borough,South Hills Area,Keystone Oaks,18,19576,SH,490.771851,0.766831,819,003135,12,South Hills Regional,1953,03ff0664-7ca1-4b9d-95d6-061aa24dfa70,Magisterial District 05-2-19,Honorable Blaise Larotonda,680 Washington Road,,Pittsburgh,PA,15228,Dormont
52,MCDONALD,BOROUGH,McDonald Borough, ,Fort Cherry,20,46072,AA,121.228447,0.189419,841,003325,5,Southwest Regional,2007,21d63d3b-68e7-428b-a95c-feadc1355e2c,Magisterial District 05-3-17,Honorable Anthony W. Saveikis,8052 Steubenville Pike,,Oakdale,PA,15071,McDonald
53,LINCOLN,BOROUGH,Lincoln Borough,Twin Rivers,South Allegheny,18,43408,MV,3289.419678,5.139719,881,003315,9,Mon-Valley,1977,4d5bde65-bf21-48a2-9380-b96a8493e3a0,Magisterial District 05-3-05,Honorable Thomas G. Miller,1985 Lincoln Way,,White Oak,PA,15131,Lincoln
54,LEETSDALE,BOROUGH,Leetsdale Borough,Quaker Valley,Quaker Valley,14,42392,AA,753.322815,1.177067,836,003305,1,Northwest Regional,1974,d5f5d209-1884-47f9-a5b7-b33cc4890bfd,Magisterial District 05-3-02,Honorable Robert L. Ford,190 Ohio River Blvd,,Leetsdale,PA,15056,Leetsdale
55,LEET,TOWNSHIP,Leet Township,Quaker Valley,Quaker Valley,14,42368,AA,1024.352295,1.60055,921,003302,1,Northwest Regional,1974,a6964241-5e73-4270-8677-eb366852a16e,Magisterial District 05-3-02,Honorable Robert L. Ford,190 Ohio River Blvd,,Leetsdale,PA,15056,Leet
56,SOUTH PARK,TOWNSHIP,South Park Township,South Hills Area,South Park,20,6064,SH,7491.746582,11.705854,945,003045,5,South Hills Regional,1962,09ffabf1-98fa-4e01-aa54-bfaab06e614e,Magisterial District 05-2-16,Honorable Guy Reschenthaler,343 Old Curry Hollow Road,,Pittsburgh,PA,15236,South Park
57,HOMESTEAD,BOROUGH,Homestead Borough,Steel Valley,Steel Valley,14,35424,MV,417.550873,0.652423,834,003270,11,Mon-Valley,1954,12f5331a-5bff-4181-852f-c1695ce2265a,Magisterial District 05-2-15,Honorable Thomas R. Torkowsky,510 East Eighth Avenue,,Munhall,PA,15120,Homestead
58,MOUNT LEBANON,MUNICIPALI,Mount Lebanon,South Hills Area,Mt. Lebanon,18,51696,SH,3891.854004,6.081022,926,003360,5,South Hills Regional,1963,01b6b115-70a4-49cc-b236-70affdcf92ce,Magisterial District 05-2-19,Honorable Blaise Larotonda,680 Washington Road,,Pittsburgh,PA,15228,Mount Lebanon
59,INGRAM,BOROUGH,Ingram Borough,Char-West,Montour,14,37000,AA,279.21698,0.436277,835,003280,12,Southwest Regional,1953,ac5d7143-1baf-4d64-a590-cecd284ee666,Magisterial District 05-2-23,Honorable Dennis R. Joyce,136 Bradford Avenue,,Pittsburgh,PA,15205,Ingram
60,THORNBURG,BOROUGH,Thornburg Borough,Char-West,Montour,14,76560,AA,276.666046,0.432291,856,003560,4,Southwest Regional,1954,b36c8ef6-1a5b-4bd3-8908-23ab0f109396,Magisterial District 05-2-23,Honorable Dennis R. Joyce,136 Bradford Avenue,,Pittsburgh,PA,15205,Thornburg
61,CRAFTON,BOROUGH,Crafton Borough,Char-West,Carlynton,14,16848,AA,734.246338,1.14726,818,003125,4,Southwest Regional,1954,715dfc2e-edac-4b43-999e-ba2052d6ae3e,Magisterial District 05-2-23,Honorable Dennis R. Joyce,136 Bradford Avenue,,Pittsburgh,PA,15205,Crafton
62,CASTLE SHANNON,BOROUGH,Castle Shannon Borough,South Hills Area,Keystone Oaks,18,11680,SH,1027.096924,1.604839,813,003090,6,South Hills Regional,1958,fc5970a5-ccbc-4053-8d5f-ebe5087f3f82,Magisterial District 05-2-17,Honorable David J. Barton,5301 Grove Rd,,Pittsburgh,PA,15236,Castle Shannon
63,WHITEHALL,BOROUGH,Whitehall Borough,South Hills Area,Baldwin-Whitehall,18,84512,SH,2110.15918,3.297123,874,003625,6,South Hills Regional,1957,c626f8f9-1ee9-4a49-bd94-e3ed460bc06a,Magisterial District 05-2-17,Honorable David J. Barton,5301 Grove Rd,,Pittsburgh,PA,15236,Whitehall
64,TRAFFORD,BOROUGH,Trafford Borough, ,Penn-Trafford,18,77272,MV,93.270042,0.145734,857,003565,8,East Regional,1999,4bcbe05a-0cc3-4048-8a6c-f80478810df1,Magisterial District 05-2-11,Honorable Vacant,371 Lincoln Highway,,North Versailles,PA,15137,Trafford
65,SEWICKLEY HILLS,BOROUGH,Sewickley Hills Borough, ,Quaker Valley,14,69416,AA,1564.793457,2.444989,882,003505,2,Northwest Regional,1976,24840012-5038-4315-9760-773e08320d5c,Magisterial District 05-3-02,Honorable Robert L. Ford,190 Ohio River Blvd,,Leetsdale,PA,15056,Sewickley Hills
66,GLENFIELD,BOROUGH,Glenfield Borough,Quaker Valley,Quaker Valley,20,29592,AA,639.739624,0.999593,830,003235,4,Northwest Regional,1971,c0b32aad-e736-4ee0-8110-4a56a310caea,Magisterial District 05-3-02,Honorable Robert L. Ford,190 Ohio River Blvd,,Leetsdale,PA,15056,Aleppo
67,ALEPPO,TOWNSHIP,Aleppo Township,Quaker Valley,Quaker Valley,14,724,AA,1124.589233,1.75717,901,003005,1,Northwest Regional,1974,74342b1e-8150-4ea7-ad58-aac9923fbfd1,Magisterial District 05-3-02,Honorable Robert L. Ford,190 Ohio River Blvd,,Leetsdale,PA,15056,Aleppo
68,OAKDALE,BOROUGH,Oakdale Borough,Char-West,West Allegheny,20,55840,AA,285.33847,0.445841,844,003395,4,Southwest Regional,2007,734eb2c7-abfd-424b-81de-1556d2506bae,Magisterial District 05-3-17,Honorable Anthony W. Saveikis,8052 Steubenville Pike,,Oakdale,PA,15071,Oakdale
69,PLEASANT HILLS,BOROUGH,Pleasant Hills Borough,South Hills Area,West Jefferson Hills,18,61328,SH,1792.188354,2.800294,873,003440,6,South Hills Regional,1965,8946aff7-bdca-4f1c-a1ee-f30accf9cbda,Magisterial District 05-2-16,Honorable Guy Reschenthaler,343 Old Curry Hollow Road,,Pittsburgh,PA,15236,Pleasant Hills
70,EAST MCKEESPORT,BOROUGH,East McKeesport Borough,Turtle Creek Valley,East Allegheny,18,21496,MV,242.558563,0.378998,821,003155,8,East Regional,1971,ce39c88d-4c4c-4156-b87f-df544dd43897,Magisterial District 05-2-11,Honorable Vacant,371 Lincoln Highway,,North Versailles,PA,15137,East McKeesport
71,BALDWIN,BOROUGH,Baldwin Borough,South Hills Area,Baldwin-Whitehall,18,3928,SH,3730.407471,5.828761,877,003020,6,South Hills Regional,1960,0437576f-ae16-4ba8-addd-fe23e5119632,Magisterial District 05-2-18,Honorable Vacant,41 Macek Drive,,Pittsburgh,PA,15227,Baldwin
72,BRENTWOOD,BOROUGH,Brentwood Borough,South Hills Area,Brentwood Borough,18,8416,SH,944.373413,1.475583,810,003075,6,South Hills Regional,1956,309c4e6f-e228-4d3b-8c08-f5229c6b1a50,Magisterial District 05-2-18,Honorable Vacant,41 Macek Drive,,Pittsburgh,PA,15227,Brentwood
73,CHURCHILL,BOROUGH,Churchill Borough,Turtle Creek Valley,Woodland Hills,18,13608,ES,1398.227783,2.184731,816,003105,8,East Regional,1953,192b671f-16a4-478d-b081-5e92043fddc5,Magisterial District 05-2-08,Honorable Thomas Caulfield,2065 Ardmore Blvd,,Forest Hills,PA,15221,Churchill
74,MCKEESPORT,CITY,McKeesport,Twin Rivers,McKeesport Area,18,46256,MV,3468.846924,5.420073,400,003330,9,Mon-Valley,1973,a0090d4c-9e62-4412-b67e-bcc93ef99566,Magisterial District 05-2-13,Honorable Eugene F. Riazzi,687 Oneil Boulevard,,McKeesport,PA,15132,McKeesport
75,VERONA,BOROUGH,Verona Borough,Allegheny Valley North,Riverview,18,80032,ES,378.812775,0.591895,859,003580,7,East Regional,1982,71a0b593-9749-4e7d-9544-1f5dc54ffc74,Magisterial District 05-2-06,Honorable Leonard J. HRomyak,85 Universal Road,,Pittsburgh,PA,15235,Verona
76,OAKMONT,BOROUGH,Oakmont Borough, ,Riverview,18,56088,ES,1120.934448,1.751459,845,003400,7,East Regional,1983,3a10635f-3fef-4100-b260-285ea5eccc23,Magisterial District 05-2-32,Honorable Linda I. Zucco,10101 Saltsburg Road,,Plum,PA,15239,Oakmont
77,HARMAR,TOWNSHIP,Harmar Township,Allegheny Valley North,Allegheny Valley,18,32624,NH,4060.858643,6.345092,915,003250,7,NEWCOM,1967,6a1d2537-b89e-4dca-90b5-a62c00470aa2,Magisterial District 05-3-03,Honorable David J. Sosovicka,721 Gulf Lab Road,,Cheswick,PA,15024,Harmar
78,CRESCENT,TOWNSHIP,Crescent Township,Char-West,Moon Area,20,17048,AA,1511.144165,2.361162,906,003130,1,Northwest Regional,1978,20e68cd5-440f-41ad-b9e5-0fe2396b89d8,Magisterial District 05-2-25,Honorable Mary P. Murray,923 Fifth Avenue,,Coraopolis,PA,15108,Crescent
79,EDGEWORTH,BOROUGH,Edgeworth Borough,Quaker Valley,Quaker Valley,20,22576,AA,1030.743774,1.610538,824,003170,1,Northwest Regional,1974,6e3a2b01-34fc-4c31-8dcf-326723e281bc,Magisterial District 05-3-02,Honorable Robert L. Ford,190 Ohio River Blvd,,Leetsdale,PA,15056,Edgeworth
80,CORAOPOLIS,BOROUGH,Coraopolis Borough,Char-West,Cornell,20,16144,AA,946.467163,1.478855,817,003120,1,Northwest Regional,1979,3a8f36eb-1c03-43e1-8a93-b2d4b078d515,Magisterial District 05-2-25,Honorable Mary P. Murray,923 Fifth Avenue,,Coraopolis,PA,15108,Coraopolis
81,HAYSVILLE,BOROUGH,Haysville Borough,Quaker Valley,Quaker Valley,20,33312,AA,137.77037,0.215266,832,003260,4,Northwest Regional,1971,9ee5b6a3-dc4e-4817-a3f8-7c12cc4da2ae,Magisterial District 05-3-02,Honorable Robert L. Ford,190 Ohio River Blvd,,Leetsdale,PA,15056,Haysville
82,ELIZABETH,TOWNSHIP,Elizabeth Township,Twin Rivers,Elizabeth Foreward,18,23000,MV,14758.374023,23.059954,908,003180,9,Mon-Valley,1981,36c6e479-42ff-4f19-b62f-4b5acffd8f1d,Magisterial District 05-2-26,Honorable Beth S. Mills,2611 Hayden Boulevard, Suite 3,Elizabeth,PA,15037,Elizabeth
83,PLUM,BOROUGH,Plum Borough,Turtle Creek Valley,Plum Borough,4,61536,ES,18545.425781,28.977234,880,003445,7,East Regional,1997,730d5661-536f-4a26-ac42-b9a8bf3e85e3,Magisterial District 05-2-32,Honorable Linda I. Zucco,10101 Saltsburg Road,,Plum,PA,15239,Plum
84,FRAZER,TOWNSHIP,Frazer Township,Allegheny Valley North,Deer Lakes,4,27608,NH,5990.693848,9.360459,913,003225,3,NEWCOM,1980,6f6955f0-524d-4b6b-bcab-8656f17a54c0,Magisterial District 05-3-03,Honorable David J. Sosovicka,721 Gulf Lab Road,,Cheswick,PA,15024,Frazer
85,TARENTUM,BOROUGH,Tarentum Borough,Allegheny Valley North,Highlands,4,76104,NH,903.48877,1.411701,855,003555,3,NEWCOM,1969,7d6055c8-ed3c-4cd3-8392-0e3601ebd769,Magisterial District 05-2-05,Honorable Carolyn S. Bengel,1010 Broadview Boulevard,,Brackenridge,PA,15014,Tarentum
86,FAWN,TOWNSHIP,Fawn Township,Allegheny Valley North,Highlands,4,25400,NH,8234.729492,12.866764,909,003195,3,NEWCOM,1980,e6e41024-58c0-4093-86f5-b5d4831a81a4,Magisterial District 05-2-05,Honorable Carolyn S. Bengel,1010 Broadview Boulevard,,Brackenridge,PA,15014,Fawn
87,SHALER,TOWNSHIP,Shaler Township,North Hills,Shaler Area,18,69584,NH,7172.964844,11.207758,944,003510,3,NEWCOM,1965,b6d24f29-0853-4f32-b5d1-8138334b04f4,Magisterial District 05-2-03,Honorable Robert P. Dzvonick,1007 Mount Royal Blvd,,Pittsburgh,PA,15223,Shaler
88,MILLVALE,BOROUGH,Millvale Borough,North Hills,Shaler Area,18,49920,NH,441.883026,0.690442,838,003345,3,NEWCOM,1956,33c337dc-2f02-46ed-ad49-446007fc18c3,Magisterial District 05-2-03,Honorable Robert P. Dzvonick,1007 Mount Royal Blvd,,Pittsburgh,PA,15223,Millvale
89,KILBUCK,TOWNSHIP,Kilbuck Township,Quaker Valley,Avonworth,14,39624,NH,1696.042969,2.650067,920,003295,1,Northwest Regional,1971,63fb907f-6f2e-4231-9464-338bb5162886,Magisterial District 05-2-01,Honorable Tara L. Smith,660 Lincoln Avenue,,Pittsburgh,PA,15202,Kilbuck
90,SEWICKLEY HEIGHTS,BOROUGH,Sewickley Heights Borough, ,Quaker Valley,14,69400,AA,4738.989746,7.404672,869,003500,2,Northwest Regional,1976,4d20d985-340d-4174-865b-d45734d391a5,Magisterial District 05-3-02,Honorable Robert L. Ford,190 Ohio River Blvd,,Leetsdale,PA,15056,Sewickley Heights
91,BELL ACRES,BOROUGH,Bell Acres Borough,Quaker Valley,Quaker Valley,14,5216,AA,3385.003418,5.289067,883,003028,2, ,1978,2d75f2ac-5f8b-4af1-8421-3e9ce09eb009,Magisterial District 05-3-02,Honorable Robert L. Ford,190 Ohio River Blvd,,Leetsdale,PA,15056,Bell Acres
92,NORTH VERSAILLES,TOWNSHIP,North Versailles Township,Turtle Creek Valley,East Allegheny,18,55488,MV,5342.856934,8.348214,930,003390,8,East Regional,1972,f5a0e60e-7841-429a-861c-71b7beff1dc9,Magisterial District 05-2-11,Honorable Vacant,371 Lincoln Highway,,North Versailles,PA,15137,North Versailles
93,WHITE OAK,BOROUGH,White Oak Borough,Twin Rivers,McKeesport Area,18,84704,MV,4233.855957,6.6154,875,003630,9,Mon-Valley,1975,56458792-33a5-4a7e-bbd3-85345cd6c799,Magisterial District 05-3-05,Honorable Thomas G. Miller,1985 Lincoln Way,,White Oak,PA,15131,White Oak
94,CLAIRTON,CITY,Clairton,Steel Valley,Clairton City,18,13704,MV,1933.003052,3.020317,200,003110,6,Mon-Valley,1966,1f40d438-2436-4a07-86e8-52239e7d45a9,Magisterial District 05-3-09,Honorable Armand A. Martin,800 Monongahela Avenue,,Glassport,PA,15045,Clairton
95,JEFFERSON HILLS,BOROUGH,Jefferson Hills Borough,South Hills Area,West Jefferson Hills,18,37816,SH,10813.691406,16.896391,878,003285,6,South Hills Regional,1968,68e55304-ca05-4b01-8a21-0f2c8c021a22,Magisterial District 05-2-16,Honorable Guy Reschenthaler,343 Old Curry Hollow Road,,Pittsburgh,PA,15236,Jefferson Hills
96,WEST DEER,TOWNSHIP,West Deer Township,Allegheny Valley North,Deer Lakes,4,82800,NH,18471.134766,28.861141,952,003595,2,NEWCOM,1988,c75c4696-9e7f-4010-8e0b-96abd4b0742b,Magisterial District 05-3-04,Honorable Suzanne Blaschak,2060 Saxonburg Boulevard,,Gibsonia,PA,15044,West Deer
97,PINE,TOWNSHIP,Pine Township,North Hills,Pine-Richland,4,60272,NH,10785.910156,16.852983,935,003425,2,NEWCOM,2007,ba05aee4-97ed-452a-874f-834611feb76d,Magisterial District 05-2-12,Honorable William K. Wagner,8105 Perry Highway,,Pittsburgh,PA,15237,Pine
98,MCCANDLESS,TOWNSHIP,McCandless Township,North Hills,North Allegheny,14,45900,NH,10586.797852,16.541876,927,003320,2,Northwest Regional,1987,6f73d933-9d05-4b60-ad52-16592443c39c,Magisterial District 05-2-12,Honorable William K. Wagner,8105 Perry Highway,,Pittsburgh,PA,15237,McCandless
99,UPPER ST. CLAIR,MUNICIPALI,Upper St. Clair Municipality,South Hills Area,Upper St. Clair Area,20,79274,SH,6255.606934,9.774386,950,003575,5,South Hills Regional,1966,4e22c70c-ea0f-4d33-8bcd-8df3adac75a4,Magisterial District 05-2-20,Honorable Ronald A. Arnoni,5100 West Library Avenue,,Bethel Park,PA,15102,Upper St. Clair
100,BETHEL PARK,MUNICIPALI,Bethel Park Municipality,South Hills Area,Bethel Park,20,6064,SH,7491.746582,11.705854,876,003045,5,South Hills Regional,1962,4e8938b4-f94f-4ce5-85fc-0a5ed056b4f0,Magisterial District 05-2-20,Honorable Ronald A. Arnoni,5100 West Library Avenue,,Bethel Park,PA,15102,Bethel Park
101,ASPINWALL,BOROUGH,Aspinwall Borough,Allegheny Valley North,Fox Chapel Area,18,3320,NH,245.543152,0.383661,801,003010,3,NEWCOM,1954,ade52d36-329f-4bf2-a6c9-3646f239a94b,Magisterial District 05-2-04,Honorable Elissa M. Lang,1205 Main Street,,Pittsburgh,PA,15215,Aspinwall
103,ROSSLYN FARMS,BOROUGH,Rosslyn Farms Borough,Char-West,Carlynton,14,66320,AA,353.490936,0.55233,850,003480,4,Southwest Regional,1955,94497b7d-5afb-4480-b9b7-0b1df575ee54,Magisterial District 05-2-23,Honorable Dennis R. Joyce,136 Bradford Avenue,,Pittsburgh,PA,15205,Rosslyn Farms
104,ROBINSON,TOWNSHIP,Robinson Township,Char-West,Montour,14,65352,AA,9622.300781,15.034845,939,003470,4,Northwest Regional,1977,bad9eff2-79b9-46db-a530-b34d350e3a34,Magisterial District 05-2-43,Honorable Carla M. Swearingen,5624 Steubenville Pike,,McKees Rocks,PA,15136,Robinson
105,CARNEGIE,BOROUGH,Carnegie Borough,Char-West,Carlynton,18,11336,SH,1040.548096,1.625856,812,003085,4,Southwest Regional,1958,615b8ba2-ad0b-4251-814d-a8afec4de270,Magisterial District 05-2-23,Honorable Dennis R. Joyce,136 Bradford Avenue,,Pittsburgh,PA,15205,Carnegie
106,WEST MIFFLIN,BOROUGH,West Mifflin Borough,Steel Valley,West Mifflin Area,18,83512,MV,1510.908081,2.360794,870,003370,9,Mon-Valley,1964,111f2669-c74c-4b5c-9b77-059b8879c643,Magisterial District 05-2-14,"Honorable Richard D. Olasz, Jr.",2629 Skyline Drive,,West Mifflin,PA,15122,West Mifflin
107,MUNHALL,BOROUGH,Munhall Borough,Steel Valley,Steel Valley,18,52320,MV,1510.908081,2.360794,840,003370,11,Mon-Valley,1955,37123ddd-d1e6-48ca-9d5a-fedab46b64b6,Magisterial District 05-2-15,Honorable Thomas R. Torkowsky,510 East Eighth Avenue,,Munhall,PA,15120,Munhall
108,OHIO,TOWNSHIP,Ohio Township,North Hills,Avonworth,14,56392,NH,4355.547852,6.805544,932,003410,2,Northwest Regional,1976,b3bad0ff-1393-49d2-b3d2-926cfd22c27c,Magisterial District 05-2-01,Honorable Tara L. Smith,660 Lincoln Avenue,,Pittsburgh,PA,15202,Ohio
109,FRANKLIN PARK,BOROUGH,Franklin Park Borough,North Hills,North Allegheny,14,27552,NH,8670.269531,13.547297,884,003223,2,Northwest Regional,1988,4e1ee398-405b-4341-b113-bdbca0fcd506,Magisterial District 05-3-02,Honorable Robert L. Ford,190 Ohio River Blvd,,Leetsdale,PA,15056,Franklin Park
110,PENN HILLS,MUNICIPALI,Penn Hills Municipality,Turtle Creek Valley,Penn Hills,18,59032,ES,12455.728516,19.462078,934,003420,7,East Regional,1984,974bbf4e-f551-4d81-87ac-eff9997e3935,Magisterial District 05-2-06,Honorable Leonard J. HRomyak,85 Universal Road,,Pittsburgh,PA,15235,Penn Hills
111,GLEN OSBORNE,BOROUGH,Glen Osborne Borough,Quaker Valley,Quaker Valley,20,57200,AA,358.957794,0.560872,846,003415,4,Northwest Regional,1971,10bb8f2a-d6aa-4e07-99ce-6941d472a4f8,Magisterial District 05-3-02,Honorable Robert L. Ford,190 Ohio River Blvd,,Leetsdale,PA,15056,glen Osborne
112,SEWICKLEY,BOROUGH,Sewickley Borough,Quaker Valley,Quaker Valley,20,69376,AA,718.30957,1.122359,851,003490,1,Northwest Regional,1972,77fd8b54-a4ad-4940-aa51-b55b1ecafbdc,Magisterial District 05-3-02,Honorable Robert L. Ford,190 Ohio River Blvd,,Leetsdale,PA,15056,Sewickley
113,MOON,TOWNSHIP,Moon Township,Char-West,Moon Area,20,50784,AA,15352.370117,23.988079,925,003355,1,Northwest Regional,1979,bfa01438-fd3f-4a74-af2b-6ca064771b46,Magisterial District 05-2-25,Honorable Mary P. Murray,923 Fifth Avenue,,Coraopolis,PA,15108,Moon
114,SOUTH FAYETTE,TOWNSHIP,South Fayette Township,Char-West,South Fayete Township,20,72160,AA,13000.657227,20.313532,946,003525,5,Southwest Regional,2007,c05fb0b8-50af-48fe-beee-11da0bda2097,Magisterial District 05-2-21,Honorable Maureen McGraw-Desmet,295 Millers Run Road,,Bridgeville,PA,15017,South Fayette
115,HAMPTON,TOWNSHIP,Hampton Township,North Hills,Hampton Township,14,32328,NH,10367.599609,16.199375,914,003245,2,NEWCOM,1986,dcb7c404-ab7f-462b-b0d4-e81146f4a88f,Magisterial District 05-3-04,Honorable Suzanne Blaschak,2060 Saxonburg Boulevard,,Gibsonia,PA,15044,Hampton
116,INDIANA,TOWNSHIP,Indiana Township,North Hills,Fox Chapel Area,18,36808,NH,11256.240234,17.587875,917,003275,3,NEWCOM,1986,048022e2-8606-4673-9708-c8f11806b8df,Magisterial District 05-2-04,Honorable Elissa M. Lang,1205 Main Street,,Pittsburgh,PA,15215,Indiana
117,SCOTT,TOWNSHIP,Scott Township,South Hills Area,Chartiers Valley,18,68388,SH,2484.294434,3.881709,941,003485,4,Southwest Regional,1961,30417901-bc6d-467e-a20b-8710cb8862e6,Magisterial District 05-2-22,Honorable Gary M. Zyra,301 Lindsay Road,,Carnegie,PA,15106,Scott
118,COLLIER,TOWNSHIP,Collier Township,Char-West,Chartiers Valley,14,15216,AA,8943.533203,13.97427,905,003115,4,Southwest Regional,2007,e342e8c1-fb88-4e9b-a15e-b9ec55737857,Magisterial District 05-2-21,Honorable Maureen McGraw-Desmet,295 Millers Run Road,,Bridgeville,PA,15017,Collier
119,HEIDELBERG,BOROUGH,Heidelberg Borough,South Hills Area,Chartiers Valley,18,33592,SH,175.082489,0.273566,833,003265,4,Southwest Regional,1962,cef33603-3819-4f9a-916c-b86c4120e1d1,Magisterial District 05-2-22,Honorable Gary M. Zyra,301 Lindsay Road,,Carnegie,PA,15106,Heidelberg
120,MCKEES ROCKS,BOROUGH,McKees Rocks Borough,Char-West,Sto-Rox,14,46264,AA,717.449707,1.121015,842,003335,4,Southwest Regional,1953,6d5b6370-1a0c-4cad-8179-9211d1729919,Magisterial District 05-3-06,Honorable Mary Ann Cercone,301 Chartiers Avenue,,Pittsburgh,PA,15136,McKees Rocks
121,STOWE,TOWNSHIP,Stowe Township,Char-West,Sto-Rox,14,74648,AA,1464.63147,2.288486,949,003545,4,Southwest Regional,1974,df11356f-8d81-48f8-bc0d-d085d71c8356,Magisterial District 05-3-06,Honorable Mary Ann Cercone,301 Chartiers Avenue,,Pittsburgh,PA,15136,STOWE
122,WILKINS,TOWNSHIP,Wilkins Township,Turtle Creek Valley,Woodland Hills,18,85184,ES,1671.226318,2.611291,953,003635,7,East Regional,1959,ce7d83fc-dccb-4c44-944c-e86fdd989f07,Magisterial District 05-2-06,Honorable Leonard J. HRomyak,85 Universal Road,,Pittsburgh,PA,15235,Wilkins
123,TURTLE CREEK,BOROUGH,Turtle Creek Borough,Turtle Creek Valley,Woodland Hills,18,77912,MV,644.897644,1.007653,858,003570,8,East Regional,1959,31b0d801-68c9-44f1-b880-d2a4ccd01526,Magisterial District 05-2-47,Honorable Scott H. Schricker,100 Penn Plaza Shopping Center,,Turtle Creek,PA,15145,Turtle Creek
124,MONROEVILLE,MUNICIPALI,Monroeville Municipality,Turtle Creek Valley,Gateway,18,52330,ES,12622.498047,19.722656,879,003350,8,East Regional,1985,8328dcfc-b41c-44cb-a917-07bcd45cbfdb,Magisterial District 05-2-07,Honorable Jeffrey L. Herbst,339 Old Haymaker Road,,Monroeville,PA,15146,Monroeville
125,PITCAIRN,BOROUGH,Pitcairn Borough,Turtle Creek Valley,Gateway,18,60712,ES,309.703888,0.483912,847,003430,8,East Regional,1982,1fca9e61-3f36-44e4-b5bd-376c71866bcc,Magisterial District 05-2-07,Honorable Jeffrey L. Herbst,339 Old Haymaker Road,,Monroeville,PA,15146,Pitcairn
126,O'HARA,TOWNSHIP,O Hara Township,North Hills,Fox Chapel Area,18,56384,NH,2247.916992,3.51237,931,003405,3,NEWCOM,1960,b85d4caa-b1fb-4f07-9590-97e6176c8228,Magisterial District 05-2-04,Honorable Elissa M. Lang,1205 Main Street,,Pittsburgh,PA,15215,O'Hara
127,SHARPSBURG,BOROUGH,Sharpsburg Borough,North Hills,Fox Chapel Area,18,69776,NH,414.509033,0.64767,852,003515,3,NEWCOM,1954,e4d77a86-9f32-411a-a737-8e7a59d7914d,Magisterial District 05-2-04,Honorable Elissa M. Lang,1205 Main Street,,Pittsburgh,PA,15215,Sharpsburg
128,WEST VIEW,BOROUGH,West View Borough,North Hills,North Hills,14,84144,NH,647.374268,1.011522,864,003615,1,Northwest Regional,1969,15c262e7-5316-41f5-952e-380829a7c736,Magisterial District 05-2-02,Honorable Richard G. Opiela,439 Perry Highway,,Pittsburgh,PA,15229,West View
129,ROSS,TOWNSHIP,Ross Township,North Hills,North Hills,14,66264,NH,9257.419922,14.464719,940,003475,1,NEWCOM,1970,5273558c-e96b-4dae-9a75-bf88530f7b94,Magisterial District 05-2-02,Honorable Richard G. Opiela,439 Perry Highway,,Pittsburgh,PA,15229,Ross
130,FOREST HILLS,BOROUGH,Forest Hills Borough,Turtle Creek Valley,Woodland Hills,18,26592,ES,990.75531,1.548055,828,003205,8,East Regional,1953,17677b41-06eb-4be9-8094-e90b111b6a62,Magisterial District 05-2-08,Honorable Thomas Caulfield,2065 Ardmore Blvd,,Forest Hills,PA,15221,Forest Hills
163,PITTSBURGH 26,CITY,Pittsburgh, ,City of Pittsburgh,14,61000,PGH,0,0,126,003435,13,City of Pittsburgh,1948,8f5a65f1-2011-4297-80a0-16bbc7e2a313,Magisterial District 05-2-42,"Honorable Robert P. Ravenstahl , Jr.",3874 Perrysville Avenue,,Pittsburgh,PA,15214,Pittsburgh 26
164,PITTSBURGH 27,CITY,Pittsburgh, ,City of Pittsburgh,14,61000,PGH,0,0,127,003435,13,City of Pittsburgh,1948,f2a44416-8f2d-43b5-9593-b4a1316d23ff,Magisterial District 05-2-42,"Honorable Robert P. Ravenstahl , Jr.",3874 Perrysville Avenue,,Pittsburgh,PA,15214,Pittsburgh 27
165,PITTSBURGH 12,CITY,Pittsburgh, ,City of Pittsburgh,14,61000,PGH,0,0,112,003435,13,City of Pittsburgh,1948,142f7aac-207b-4688-8114-55569d65da46,Magisterial District 05-3-12,Honorable Kevin E. Cooper,566 Brushton Avenue,,Pittsburgh,PA,15208,Pittsburgh 12
166,PITTSBURGH 10,CITY,Pittsburgh, ,City of Pittsburgh,14,61000,PGH,0,0,110,003435,13,City of Pittsburgh,1948,9eae4588-6afc-4765-9490-b03392e7456e,Magisterial District 05-2-31,"Honorable Ronald N. Costa , Sr.",1800 Morningside Avenue,,Pittsburgh,PA,15206,Pittsburgh 10
167,PITTSBURGH 11,CITY,Pittsburgh, ,City of Pittsburgh,14,61000,PGH,0,0,111,003435,13,City of Pittsburgh,1948,7efe9547-d8cd-4bea-90ff-adffc81a9c5a,Magisterial District 05-2-31,"Honorable Ronald N. Costa , Sr.",1800 Morningside Avenue,,Pittsburgh,PA,15206,Pittsburgh 11
168,PITTSBURGH 9,CITY,Pittsburgh, ,City of Pittsburgh,14,61000,PGH,0,0,109,003435,13,City of Pittsburgh,1948,d7a58b14-8434-48ad-86f5-ffa397ff647c,Magisterial District 05-3-10,Honorable Anthony Ceoffe,4211 Butler Street,,Pittsburgh,PA,15201,Pittsburgh 9
169,PITTSBURGH 6,CITY,Pittsburgh, ,City of Pittsburgh,14,61000,PGH,0,0,106,003435,13,City of Pittsburgh,1948,b6f5b3c4-f91e-4144-9881-0ce0245aa2c4,Magisterial District 05-3-10,Honorable Anthony Ceoffe,4211 Butler Street,,Pittsburgh,PA,15201,Pittsburgh 6
170,PITTSBURGH 24,CITY,Pittsburgh, ,City of Pittsburgh,14,61000,PGH,0,0,124,003435,13,City of Pittsburgh,1948,b0318d8a-e38b-49d8-a177-3d213fd1d7dc,Magisterial District 05-2-40,Honorable Derwin Rushing,421 East Ohio Street,,Pittsburgh,PA,15212,Pittsburgh 24
171,PITTSBURGH 20,CITY,Pittsburgh, ,City of Pittsburgh,14,61000,PGH,0,0,120,003435,13,City of Pittsburgh,1948,e35ca25a-e0d7-4990-a451-de3eca1739d6,Magisterial District 05-3-13,Honorable Randy C. Martini,22 Wabash Avenue,,Pittsburgh,PA,15220,Pittsburgh 20
172,PITTSBURGH 28,CITY,Pittsburgh, ,City of Pittsburgh,14,61000,PGH,0,0,128,003435,13,City of Pittsburgh,1948,6ab99a7c-e212-4898-bb0b-9fe359ee58e6,Magisterial District 05-3-13,Honorable Randy C. Martini,22 Wabash Avenue,,Pittsburgh,PA,15220,Pittsburgh 28
173,PITTSBURGH 25,CITY,Pittsburgh, ,City of Pittsburgh,14,61000,PGH,0,0,125,003435,13,City of Pittsburgh,1948,0bf99a06-956c-4a9b-8d67-4e96160bd926,Magisterial District 05-2-40,Honorable Derwin Rushing,421 East Ohio Street,,Pittsburgh,PA,15212,Pittsburgh 25
174,PITTSBURGH 8,CITY,Pittsburgh, ,City of Pittsburgh,14,61000,PGH,0,0,108,003435,13,City of Pittsburgh,1948,f48076c8-98c9-4b21-a186-0aa048e3fe4a,Magisterial District 05-2-31,"Honorable Ronald N. Costa , Sr.",1800 Morningside Avenue,,Pittsburgh,PA,15206,Pittsburgh 8
175,PITTSBURGH 21,CITY,Pittsburgh, ,City of Pittsburgh,14,61000,PGH,37352.070312,58.36261,121,003435,13,City of Pittsburgh,1948,d1117f80-a665-4e6b-a38d-9d43c4397c2b,Magisterial District 05-2-40,Honorable Derwin Rushing,421 East Ohio Street,,Pittsburgh,PA,15212,Pittsburgh 21
176,PITTSBURGH 13,CITY,Pittsburgh, ,City of Pittsburgh,14,61000,PGH,0,0,113,003435,13,City of Pittsburgh,1948,271e99ce-15b0-4d28-8546-7fa2f7f23284,Magisterial District 05-3-12,Honorable Kevin E. Cooper,566 Brushton Avenue,,Pittsburgh,PA,15208,Pittsburgh 13
177,PITTSBURGH 23,CITY,Pittsburgh, ,City of Pittsburgh,14,61000,PGH,0,0,123,003435,13,City of Pittsburgh,1948,faf9ef18-525a-4c8e-af37-889ec5825563,Magisterial District 05-2-40,Honorable Derwin Rushing,421 East Ohio Street,,Pittsburgh,PA,15212,Pittsburgh 23
178,PITTSBURGH 5,CITY,Pittsburgh, ,City of Pittsburgh,14,61000,PGH,37352.070312,58.36261,105,003435,13,City of Pittsburgh,1948,5dc2bc85-27d7-4541-bb3b-864376cff8fc,Magisterial District 05-2-28,"Honorable Oscar J. Petite, Jr.",1030 5th Avenue,,Pittsburgh,PA,15219,Pittsburgh 5
179,PITTSBURGH 7,CITY,Pittsburgh, ,City of Pittsburgh,14,61000,PGH,0,0,107,003435,13,City of Pittsburgh,1948,7d908752-25b7-4d85-99fc-dcf513d2d8ac,Magisterial District 05-2-35,Honorable Hugh Fitzpatrick McGough,5801 Forward Avenue,,Pittsburgh,PA,15217,Pittsburgh 7
180,PITTSBURGH 2,CITY,Pittsburgh, ,City of Pittsburgh,14,61000,PGH,0,0,102,003435,13,City of Pittsburgh,1948,f5c933b2-68a9-4329-9735-36657f6b918c,Magisterial District 05-2-28,"Honorable Oscar J. Petite, Jr.",1030 5th Avenue,,Pittsburgh,PA,15219,Pittsburgh 2
181,PITTSBURGH 22,CITY,Pittsburgh, ,City of Pittsburgh,14,61000,PGH,0,0,122,003435,13,City of Pittsburgh,1948,5c77fb9d-c0b8-40bd-a0c1-6468f6ba4afe,Magisterial District 05-2-40,Honorable Derwin Rushing,421 East Ohio Street,,Pittsburgh,PA,15212,Pittsburgh 22
182,PITTSBURGH 14,CITY,Pittsburgh, ,City of Pittsburgh,14,61000,PGH,0,0,114,003435,13,City of Pittsburgh,1948,36259292-b349-4965-83a0-f69ed3e4210e,Magisterial District 05-2-35,Honorable Hugh Fitzpatrick McGough,5801 Forward Avenue,,Pittsburgh,PA,15217,Pittsburgh 14
183,PITTSBURGH 4,CITY,Pittsburgh, ,City of Pittsburgh,14,61000,PGH,0,0,104,003435,13,City of Pittsburgh,1948,0c33481c-3cd9-4247-a9d5-7511ba2f50a1,Magisterial District 05-2-27,Honorable Eugene N. Ricciardi,1700 East Carson Street,,Pittsburgh,PA,15203,Pittsburgh 4
184,PITTSBURGH 3,CITY,Pittsburgh, ,City of Pittsburgh,14,61000,PGH,0,0,103,003435,13,City of Pittsburgh,1948,1ae8b06f-3a6a-4da7-b8bb-77c1882f2677,Magisterial District 05-2-28,"Honorable Oscar J. Petite, Jr.",1030 5th Avenue,,Pittsburgh,PA,15219,Pittsburgh 3
185,PITTSBURGH 19,CITY,Pittsburgh, ,City of Pittsburgh,14,61000,PGH,37352.070312,58.36261,119,003435,13,City of Pittsburgh,1948,6be8c59e-f53b-4b41-a421-6072d5cc8d91,Magisterial District 05-2-38,Honorable James A. Motznik,736 Brookline Blvd,,Pittsburgh,PA,15226,Pittsburgh 19
186,PITTSBURGH 1,CITY,Pittsburgh, ,City of Pittsburgh,14,61000,PGH,37352.070312,58.36261,101,003435,13,City of Pittsburgh,1948,31ebd138-96bd-4bc1-b5ce-cce413e9f91f,Magisterial District 05-2-28,"Honorable Oscar J. Petite, Jr.",1030 5th Avenue,,Pittsburgh,PA,15219,Pittsburgh 1
187,PITTSBURGH 17,CITY,Pittsburgh, ,City of Pittsburgh,14,61000,PGH,0,0,117,003435,13,City of Pittsburgh,1948,95958e57-5fb3-4133-8acb-bf6b320e3f56,Magisterial District 05-2-27,Honorable Eugene N. Ricciardi,1700 East Carson Street,,Pittsburgh,PA,15203,Pittsburgh 17
188,PITTSBURGH 16,CITY,Pittsburgh, ,City of Pittsburgh,14,61000,PGH,0,0,116,003435,13,City of Pittsburgh,1948,21355c7b-c0c1-44b6-b495-25538b75d776,Magisterial District 05-2-27,Honorable Eugene N. Ricciardi,1700 East Carson Street,,Pittsburgh,PA,15203,Pittsburgh 16
189,PITTSBURGH 18,CITY,Pittsburgh, ,City of Pittsburgh,14,61000,PGH,0,0,118,003435,13,City of Pittsburgh,1948,79932553-98de-48b3-940a-073859e09b75,Magisterial District 05-3-14,Honorable Richard G. King,2213 Brownsville Road,,Pittsburgh,PA,15210,Pittsburgh 18
190,PITTSBURGH 15,CITY,Pittsburgh, ,City of Pittsburgh,14,61000,PGH,0,0,115,003435,13,City of Pittsburgh,1948,0082c7b0-c39c-41cd-b9dc-4c9c912cb854,Magisterial District 05-2-36,"Honorable James J. Hanley , Jr.",4371 Murray Avenue,,Pittsburgh,PA,15217,Pittsburgh 15
191,PITTSBURGH 30,CITY,Pittsburgh, ,City of Pittsburgh,14,61000,PGH,0,0,130,003435,13,City of Pittsburgh,1948,62afad6e-87f6-40a6-8737-fdd29f2622af,Magisterial District 05-3-14,Honorable Richard G. King,2213 Brownsville Road,,Pittsburgh,PA,15210,Pittsburgh 30
192,PITTSBURGH 31,CITY,Pittsburgh, ,City of Pittsburgh,14,61000,PGH,0,0,131,003435,13,City of Pittsburgh,1948,54159a97-6857-471c-bbf4-1fba85e1735c,Magisterial District 05-2-36,"Honorable James J. Hanley , Jr.",4371 Murray Avenue,,Pittsburgh,PA,15217,Pittsburgh 31
193,PITTSBURGH 29,CITY,Pittsburgh, ,City of Pittsburgh,14,61000,PGH,0,0,129,003435,13,City of Pittsburgh,1948,107f3161-8de1-40f6-b70c-af9d23a185cf,Magisterial District 05-3-14,Honorable Richard G. King,2213 Brownsville Road,,Pittsburgh,PA,15210,Pittsburgh 29
194,PITTSBURGH 32,CITY,Pittsburgh, ,City of Pittsburgh,14,61000,PGH,0,0,132,003435,13,City of Pittsburgh,1948,ead1fcd3-d20f-4168-846e-db3f9ae1657c,Magisterial District 05-3-14,Honorable Richard G. King,2213 Brownsville Road,,Pittsburgh,PA,15210,Pittsburgh 32
